start=new Date('2022-06-02T00:00:00.000Z').valueOf();
sats=[{"TLE_LINE1":"1 47155U 20088AK  22152.31874676  .00004974  00000-0  35264-3 0  9991","ECCENTRICITY":"0.00015950","MEAN_MOTION_DDOT":"0.0000000000000","GP_ID":"205124756","SEMIMAJOR_AXIS":"6925.363","COUNTRY_CODE":"US","MEAN_ANOMALY":"271.1669","MEAN_ELEMENT_THEORY":"SGP4","ELEMENT_SET_NO":"999","NORAD_CAT_ID":"47155","OBJECT_TYPE":"PAYLOAD","TLE_LINE2":"2 47155  53.0572  14.8822 0001595  88.9502 271.1669 15.06395196 84091","ARG_OF_PERICENTER":"88.9502","BSTAR":"0.00035264000000","PERIOD":"95.592","CLASSIFICATION_TYPE":"U","APOAPSIS":"548.333","PERIAPSIS":"546.124","SITE":"AFETR","DECAY_DATE":null,"OBJECT_NAME":"STARLINK-1869","EPOCH":"2022-06-01T07:38:59.720064","REF_FRAME":"TEME","EPHEMERIS_TYPE":"0","REV_AT_EPOCH":"8409","OBJECT_ID":"2020-088AK","LAUNCH_DATE":"2020-11-25","CENTER_NAME":"EARTH","MEAN_MOTION_DOT":"0.00004974","RA_OF_ASC_NODE":"14.8822","INCLINATION":"53.0572","RCS_SIZE":"LARGE","TIME_SYSTEM":"UTC","FILE":"3476255","MEAN_MOTION":"15.06395196"},{"TLE_LINE2":"2 47157  53.0568   2.3149 0001289  72.9739 287.1391 15.06386341 84324","ARG_OF_PERICENTER":"72.9739","OBJECT_TYPE":"PAYLOAD","APOAPSIS":"548.148","CLASSIFICATION_TYPE":"U","PERIAPSIS":"546.363","BSTAR":"0.00008325900000","PERIOD":"95.593","GP_ID":"205125482","SEMIMAJOR_AXIS":"6925.390","TLE_LINE1":"1 47157U 20088AM  22152.88730985  .00000959  00000-0  83259-4 0  9996","MEAN_MOTION_DDOT":"0.0000000000000","ECCENTRICITY":"0.00012890","MEAN_ELEMENT_THEORY":"SGP4","MEAN_ANOMALY":"287.1391","NORAD_CAT_ID":"47157","ELEMENT_SET_NO":"999","COUNTRY_CODE":"US","RA_OF_ASC_NODE":"2.3149","CENTER_NAME":"EARTH","MEAN_MOTION_DOT":"0.00000959","FILE":"3476255","MEAN_MOTION":"15.06386341","RCS_SIZE":"LARGE","TIME_SYSTEM":"UTC","INCLINATION":"53.0568","DECAY_DATE":null,"SITE":"AFETR","LAUNCH_DATE":"2020-11-25","REV_AT_EPOCH":"8432","OBJECT_ID":"2020-088AM","OBJECT_NAME":"STARLINK-1871","EPHEMERIS_TYPE":"0","REF_FRAME":"TEME","EPOCH":"2022-06-01T21:17:43.571040"},{"DECAY_DATE":null,"SITE":"AFETR","REV_AT_EPOCH":"8445","OBJECT_ID":"2020-088AN","LAUNCH_DATE":"2020-11-25","EPOCH":"2022-06-01T20:15:20.280672","EPHEMERIS_TYPE":"0","REF_FRAME":"TEME","OBJECT_NAME":"STARLINK-1873","RA_OF_ASC_NODE":"352.5151","MEAN_MOTION_DOT":"0.00003419","CENTER_NAME":"EARTH","MEAN_MOTION":"15.06397500","FILE":"3476255","INCLINATION":"53.0570","RCS_SIZE":"LARGE","TIME_SYSTEM":"UTC","GP_ID":"205124254","SEMIMAJOR_AXIS":"6925.356","MEAN_MOTION_DDOT":"0.0000000000000","TLE_LINE1":"1 47158U 20088AN  22152.84398473  .00003419  00000-0  24834-3 0  9992","ECCENTRICITY":"0.00014630","ELEMENT_SET_NO":"999","NORAD_CAT_ID":"47158","MEAN_ANOMALY":"295.5703","MEAN_ELEMENT_THEORY":"SGP4","COUNTRY_CODE":"US","ARG_OF_PERICENTER":"64.5438","TLE_LINE2":"2 47158  53.0570 352.5151 0001463  64.5438 295.5703 15.06397500 84451","OBJECT_TYPE":"PAYLOAD","PERIAPSIS":"546.208","CLASSIFICATION_TYPE":"U","APOAPSIS":"548.234","PERIOD":"95.592","BSTAR":"0.00024834000000"},{"COUNTRY_CODE":"US","MEAN_ELEMENT_THEORY":"SGP4","MEAN_ANOMALY":"83.5459","NORAD_CAT_ID":"47159","ELEMENT_SET_NO":"999","ECCENTRICITY":"0.00069970","TLE_LINE1":"1 47159U 20088AP  22152.60411274  .00040320  11691-4  14153-3 0  9999","MEAN_MOTION_DDOT":"0.0000116910000","GP_ID":"205124005","SEMIMAJOR_AXIS":"6680.082","BSTAR":"0.00014153000000","PERIOD":"90.559","APOAPSIS":"306.621","CLASSIFICATION_TYPE":"U","PERIAPSIS":"297.273","OBJECT_TYPE":"PAYLOAD","TLE_LINE2":"2 47159  53.0353 275.1921 0006997 276.4769  83.5459 15.90120582 85512","ARG_OF_PERICENTER":"276.4769","OBJECT_NAME":"STARLINK-1874","EPHEMERIS_TYPE":"0","REF_FRAME":"TEME","EPOCH":"2022-06-01T14:29:55.340736","LAUNCH_DATE":"2020-11-25","REV_AT_EPOCH":"8551","OBJECT_ID":"2020-088AP","SITE":"AFETR","DECAY_DATE":null,"TIME_SYSTEM":"UTC","RCS_SIZE":"LARGE","INCLINATION":"53.0353","MEAN_MOTION":"15.90120582","FILE":"3476255","MEAN_MOTION_DOT":"0.00040320","CENTER_NAME":"EARTH","RA_OF_ASC_NODE":"275.1921"},{"OBJECT_NAME":"STARLINK-1876","EPOCH":"2022-06-01T19:27:35.207424","REF_FRAME":"TEME","EPHEMERIS_TYPE":"0","REV_AT_EPOCH":"8445","OBJECT_ID":"2020-088AR","LAUNCH_DATE":"2020-11-25","SITE":"AFETR","DECAY_DATE":null,"INCLINATION":"53.0565","RCS_SIZE":"LARGE","TIME_SYSTEM":"UTC","MEAN_MOTION":"15.06366762","FILE":"3476255","MEAN_MOTION_DOT":"0.00007821","CENTER_NAME":"EARTH","RA_OF_ASC_NODE":"352.6632","COUNTRY_CODE":"US","MEAN_ANOMALY":"301.0960","MEAN_ELEMENT_THEORY":"SGP4","ELEMENT_SET_NO":"999","NORAD_CAT_ID":"47161","ECCENTRICITY":"0.00012500","TLE_LINE1":"1 47161U 20088AR  22152.81082416  .00007821  00000-0  54387-3 0  9997","MEAN_MOTION_DDOT":"0.0000000000000","GP_ID":"205125256","SEMIMAJOR_AXIS":"6925.450","BSTAR":"0.00054387000000","PERIOD":"95.594","APOAPSIS":"548.181","CLASSIFICATION_TYPE":"U","PERIAPSIS":"546.450","OBJECT_TYPE":"PAYLOAD","TLE_LINE2":"2 47161  53.0565 352.6632 0001250  59.0152 301.0960 15.06366762 84454","ARG_OF_PERICENTER":"59.0152"},{"BSTAR":"0.00018862000000","PERIOD":"95.592","APOAPSIS":"548.559","CLASSIFICATION_TYPE":"U","PERIAPSIS":"545.871","OBJECT_TYPE":"PAYLOAD","TLE_LINE2":"2 47162  53.0575   2.3954 0001941  68.6304 291.4892 15.06399605 84328","ARG_OF_PERICENTER":"68.6304","COUNTRY_CODE":"US","MEAN_ELEMENT_THEORY":"SGP4","MEAN_ANOMALY":"291.4892","NORAD_CAT_ID":"47162","ELEMENT_SET_NO":"999","MEAN_MOTION_DDOT":"0.0000000000000","TLE_LINE1":"1 47162U 20088AS  22152.87255003  .00002529  00000-0  18862-3 0  9996","ECCENTRICITY":"0.00019410","SEMIMAJOR_AXIS":"6925.350","GP_ID":"205124983","TIME_SYSTEM":"UTC","RCS_SIZE":"LARGE","INCLINATION":"53.0575","FILE":"3476255","MEAN_MOTION":"15.06399605","MEAN_MOTION_DOT":"0.00002529","CENTER_NAME":"EARTH","RA_OF_ASC_NODE":"2.3954","OBJECT_NAME":"STARLINK-1877","EPHEMERIS_TYPE":"0","REF_FRAME":"TEME","EPOCH":"2022-06-01T20:56:28.322592","LAUNCH_DATE":"2020-11-25","REV_AT_EPOCH":"8432","OBJECT_ID":"2020-088AS","SITE":"AFETR","DECAY_DATE":null},{"TLE_LINE1":"1 47163U 20088AT  22152.90479435  .00001512  00000-0  12035-3 0  9995","ECCENTRICITY":"0.00017390","MEAN_MOTION_DDOT":"0.0000000000000","SEMIMAJOR_AXIS":"6925.336","GP_ID":"205123756","COUNTRY_CODE":"US","ELEMENT_SET_NO":"999","NORAD_CAT_ID":"47163","MEAN_ANOMALY":"281.1048","MEAN_ELEMENT_THEORY":"SGP4","OBJECT_TYPE":"PAYLOAD","ARG_OF_PERICENTER":"79.0136","TLE_LINE2":"2 47163  53.0572  12.2382 0001739  79.0136 281.1048 15.06404239 84188","PERIOD":"95.592","BSTAR":"0.00012035000000","PERIAPSIS":"545.996","CLASSIFICATION_TYPE":"U","APOAPSIS":"548.405","SITE":"AFETR","DECAY_DATE":null,"EPOCH":"2022-06-01T21:42:54.231840","EPHEMERIS_TYPE":"0","REF_FRAME":"TEME","OBJECT_NAME":"STARLINK-1878","REV_AT_EPOCH":"8418","OBJECT_ID":"2020-088AT","LAUNCH_DATE":"2020-11-25","MEAN_MOTION_DOT":"0.00001512","CENTER_NAME":"EARTH","RA_OF_ASC_NODE":"12.2382","INCLINATION":"53.0572","RCS_SIZE":"LARGE","TIME_SYSTEM":"UTC","FILE":"3476255","MEAN_MOTION":"15.06404239"},{"REV_AT_EPOCH":"8459","OBJECT_ID":"2020-088AU","LAUNCH_DATE":"2020-11-25","EPOCH":"2022-06-01T19:50:09.070368","EPHEMERIS_TYPE":"0","REF_FRAME":"TEME","OBJECT_NAME":"STARLINK-1879","DECAY_DATE":null,"SITE":"AFETR","FILE":"3476255","MEAN_MOTION":"15.06391235","INCLINATION":"53.0549","RCS_SIZE":"LARGE","TIME_SYSTEM":"UTC","RA_OF_ASC_NODE":"342.6061","CENTER_NAME":"EARTH","MEAN_MOTION_DOT":"0.00000598","ELEMENT_SET_NO":"999","NORAD_CAT_ID":"47164","MEAN_ANOMALY":"311.0337","MEAN_ELEMENT_THEORY":"SGP4","COUNTRY_CODE":"US","SEMIMAJOR_AXIS":"6925.375","GP_ID":"205124504","ECCENTRICITY":"0.00018860","TLE_LINE1":"1 47164U 20088AU  22152.82649387  .00000598  00000-0  59045-4 0  9998","MEAN_MOTION_DDOT":"0.0000000000000","PERIAPSIS":"545.934","APOAPSIS":"548.547","CLASSIFICATION_TYPE":"U","PERIOD":"95.593","BSTAR":"0.00005904500000","ARG_OF_PERICENTER":"49.0815","TLE_LINE2":"2 47164  53.0549 342.6061 0001886  49.0815 311.0337 15.06391235 84591","OBJECT_TYPE":"PAYLOAD"},{"CENTER_NAME":"EARTH","MEAN_MOTION_DOT":"0.00004513","RA_OF_ASC_NODE":"4.9479","INCLINATION":"53.0559","TIME_SYSTEM":"UTC","RCS_SIZE":"LARGE","MEAN_MOTION":"15.06390185","FILE":"3476255","SITE":"AFETR","DECAY_DATE":null,"EPOCH":"2022-06-01T07:13:46.754112","EPHEMERIS_TYPE":"0","REF_FRAME":"TEME","OBJECT_NAME":"STARLINK-1880","REV_AT_EPOCH":"8423","OBJECT_ID":"2020-088AV","LAUNCH_DATE":"2020-11-25","OBJECT_TYPE":"PAYLOAD","ARG_OF_PERICENTER":"66.1996","TLE_LINE2":"2 47165  53.0559   4.9479 0001505  66.1996 293.9151 15.06390185 84238","PERIOD":"95.593","BSTAR":"0.00032174000000","PERIAPSIS":"546.201","APOAPSIS":"548.286","CLASSIFICATION_TYPE":"U","MEAN_MOTION_DDOT":"0.0000000000000","TLE_LINE1":"1 47165U 20088AV  22152.30123558  .00004513  00000-0  32174-3 0  9993","ECCENTRICITY":"0.00015050","GP_ID":"205124757","SEMIMAJOR_AXIS":"6925.379","COUNTRY_CODE":"US","ELEMENT_SET_NO":"999","NORAD_CAT_ID":"47165","MEAN_ANOMALY":"293.9151","MEAN_ELEMENT_THEORY":"SGP4"},{"RCS_SIZE":"LARGE","TIME_SYSTEM":"UTC","INCLINATION":"53.0498","MEAN_MOTION":"15.46951323","FILE":"3476255","MEAN_MOTION_DOT":"0.00017875","CENTER_NAME":"EARTH","RA_OF_ASC_NODE":"278.6768","EPHEMERIS_TYPE":"0","REF_FRAME":"TEME","EPOCH":"2022-06-01T17:07:12.811008","OBJECT_NAME":"STARLINK-1881","LAUNCH_DATE":"2020-11-25","REV_AT_EPOCH":"8549","OBJECT_ID":"2020-088AW","SITE":"AFETR","DECAY_DATE":null,"PERIOD":"93.086","BSTAR":"0.00035663000000","PERIAPSIS":"424.313","APOAPSIS":"426.992","CLASSIFICATION_TYPE":"U","OBJECT_TYPE":"PAYLOAD","ARG_OF_PERICENTER":"201.5803","TLE_LINE2":"2 47166  53.0498 278.6768 0001969 201.5803 158.5121 15.46951323 85491","COUNTRY_CODE":"US","NORAD_CAT_ID":"47166","ELEMENT_SET_NO":"999","MEAN_ELEMENT_THEORY":"SGP4","MEAN_ANOMALY":"158.5121","TLE_LINE1":"1 47166U 20088AW  22152.71334272  .00017875  00000-0  35663-3 0  9997","MEAN_MOTION_DDOT":"0.0000000000000","ECCENTRICITY":"0.00019690","GP_ID":"205125483","SEMIMAJOR_AXIS":"6803.788"}];
